{
  "norad_id": 64124,
  "name": "STARLINK-11724 [DTC]",
  "history": [
    {
      "epoch": "2026-03-28T17:18:01.252512",
      "apogee_km": 357.65755429400815,
      "perigee_km": 355.0863187820378,
      "latitude_deg": 5.134918101891861,
      "longitude_deg": -58.39860832015984,
      "semi_major_axis_km": 6734.508936538023,
      "eccentricity": 0.0001909,
      "inclination_deg": 42.9999,
      "raan_deg": 219.0092,
      "arg_perigee_deg": 266.9007,
      "mean_anomaly_deg": 93.1642,
      "mean_motion_rev_day": 15.70883079
    }
  ]
}