{"fetched_at":"2026-03-29T16:36:15Z","count":15609,"tles":[{"name":"STARLINK-11724 [DTC]","line1":"1 64124U 25111B   26087.72084783  .00149927  00000+0  11489-2 0  9995","line2":"2 64124  42.9999 219.0092 0001909 266.9007  93.1642 15.70883079 49638","category":"Starlink"}]}